NORAD_CAT_ID,OBJECT_NAME,OBJECT_TYPE,EPOCH,MEAN_MOTION,ECCENTRICITY,INCLINATION,RA_OF_ASC_NODE,ARG_OF_PERICENTER,MEAN_ANOMALY,BSTAR,MEAN_MOTION_DOT,MEAN_MOTION_DDOT,TLE_LINE0,TLE_LINE1,TLE_LINE2,SEMIMAJOR_AXIS,PERIOD,APOGEE,PERIGEE,DECAYED
51467.0,STARLINK-3178,PAYLOAD,2022-10-07 23:29:38,15.08846098,0.0002011,53.2152,124.8091,43.2905,316.8245,0.00052009,8e-05,0.0,0 STARLINK-3178,1 51467U 22010M   22280.97892224  .00008000  00000-0  52009-3 0  9992,2 51467  53.2152 124.8091 0002011  43.2905 316.8245 15.08846098 38004,6917.861999999999,95.437,541.118,538.336,0.0
51467.0,STARLINK-3178,PAYLOAD,2022-10-08 20:09:39,15.08842046,0.0002032,53.2161,120.9418,46.4639,313.6521,0.0002601,3.854e-05,0.0,0 STARLINK-3178,1 51467U 22010M   22281.84004565  .00003854  00000-0  26010-3 0  9997,2 51467  53.2161 120.9418 0002032  46.4639 313.6521 15.08842046 38131,6917.874,95.437,541.145,538.3330000000002,0.0
51467.0,STARLINK-3178,PAYLOAD,2022-10-08 23:20:26,15.08846824,0.0002018,53.2161,120.3473,46.3701,313.7459,0.00032693,4.92e-05,0.0,0 STARLINK-3178,1 51467U 22010M   22281.97252434  .00004920  00000-0  32693-3 0  9990,2 51467  53.2161 120.3473 0002018  46.3701 313.7459 15.08846824 38150,6917.86,95.437,541.121,538.3290000000002,0.0
51467.0,STARLINK-3178,PAYLOAD,2022-10-09 20:00:26,15.08852339,0.0001993,53.2163,116.4812,44.3902,315.725,0.0003333999999999,5.024e-05,0.0,0 STARLINK-3178,1 51467U 22010M   22282.83363897  .00005024  00000-0  33340-3 0  9998,2 51467  53.2163 116.4812 0001993  44.3902 315.7250 15.08852339 38280,6917.843000000003,95.437,541.086,538.3290000000002,0.0
51467.0,STARLINK-3178,PAYLOAD,2022-10-10 05:32:44,15.08854039,0.0001984,53.216,114.6973,44.0668,316.0482,0.00026303,3.902e-05,0.0,0 STARLINK-3178,1 51467U 22010M   22283.23107545  .00003902  00000-0  26303-3 0  9993,2 51467  53.2160 114.6973 0001984  44.0668 316.0482 15.08854039 39147,6917.837,95.437,541.075,538.33,0.0
51467.0,STARLINK-3178,PAYLOAD,2022-10-10 11:54:17,15.08839447,0.0002003,53.2162,113.5095,47.4319,312.6842,-4.104e-05,-9.41e-06,0.0,0 STARLINK-3178,1 51467U 22010M   22283.49604156 -.00000941  00000-0 -41040-4 0  9999,2 51467  53.2162 113.5095 0002003  47.4319 312.6842 15.08839447 38388,6917.882,95.438,541.133,538.361,0.0
51467.0,STARLINK-3178,PAYLOAD,2022-10-10 13:29:41,15.08835401,0.0001986999999999,53.2159,113.2108,44.3265,315.7885,-0.00013184,-2.386e-05,0.0,0 STARLINK-3178,1 51467U 22010M   22283.56228345 -.00002386  00000-0 -13184-3 0  9991,2 51467  53.2159 113.2108 0001987  44.3265 315.7885 15.08835401 39199,6917.894,95.438,541.134,538.385,0.0
51467.0,STARLINK-3178,PAYLOAD,2022-10-10 18:15:51,15.08831087,0.0001953,53.2173,112.319,44.4575,315.6574,-4.9347e-05,-1.073e-05,0.0,0 STARLINK-3178,1 51467U 22010M   22283.76101303 -.00001073  00000-0 -49347-4 0  9990,2 51467  53.2173 112.3190 0001953  44.4575 315.6574 15.08831087 39228,6917.908,95.438,541.124,538.422,0.0
51467.0,STARLINK-3178,PAYLOAD,2022-10-10 19:51:14,15.08832422,0.0001959,53.2172,112.0216,44.4082,315.7067,-4.2079e-05,-9.58e-06,0.0,0 STARLINK-3178,1 51467U 22010M   22283.82725198 -.00000958  00000-0 -42079-4 0  9997,2 51467  53.2172 112.0216 0001959  44.4082 315.7067 15.08832422 38436,6917.904,95.438,541.124,538.413,0.0
51467.0,STARLINK-3178,PAYLOAD,2022-10-11 11:45:06,15.08832548,0.0001976,53.2172,109.0481,44.4534,315.6617,-1.4866e-05,-5.25e-06,0.0,0 STARLINK-3178,1 51467U 22010M   22284.48965286 -.00000525  00000-0 -14866-4 0  9997,2 51467  53.2172 109.0481 0001976  44.4534 315.6617 15.08832548 38537,6917.903,95.438,541.135,538.401,0.0
51467.0,STARLINK-3178,PAYLOAD,2022-10-11 19:42:02,15.08828807,0.0001963,53.2172,107.5612,43.8672,316.2476,-5.6105e-05,-1.181e-05,0.0,0 STARLINK-3178,1 51467U 22010M   22284.82085817 -.00001181  00000-0 -56105-4 0  9999,2 51467  53.2172 107.5612 0001963  43.8672 316.2476 15.08828807 39385,6917.915,95.438,541.138,538.422,0.0
51467.0,STARLINK-3178,PAYLOAD,2022-10-12 11:35:53,15.088312,0.0001843,53.217,104.5869,43.7802,316.3336,9.6513e-05,1.248e-05,0.0,0 STARLINK-3178,1 51467U 22010M   22285.48325529  .00001248  00000-0  96513-4 0  9998,2 51467  53.2170 104.5869 0001843  43.7802 316.3336 15.08831200 38684,6917.906999999997,95.438,541.047,538.497,0.0
51467.0,STARLINK-3178,PAYLOAD,2022-10-12 14:46:39,15.08833754,0.0001862,53.217,103.9923,44.1607,315.9534,0.00011684,1.572e-05,0.0,0 STARLINK-3178,1 51467U 22010M   22285.61573375  .00001572  00000-0  11684-3 0  9992,2 51467  53.2170 103.9923 0001862  44.1607 315.9534 15.08833754 38701,6917.899,95.438,541.053,538.476,0.0
51467.0,STARLINK-3178,PAYLOAD,2022-10-13 05:05:07,15.08839808,0.0001969,53.217,101.3159,42.541,317.5735,0.00011978,1.619e-05,0.0,0 STARLINK-3178,1 51467U 22010M   22286.21189155  .00001619  00000-0  11978-3 0  9996,2 51467  53.2170 101.3159 0001969  42.5410 317.5735 15.08839808 38792,6917.880999999999,95.438,541.1080000000002,538.384,0.0
51467.0,STARLINK-3178,PAYLOAD,2022-10-13 14:37:26,15.08833822,0.0001962,53.2169,99.5316,43.0594,317.0551,0.00010206,1.336e-05,0.0,0 STARLINK-3178,1 51467U 22010M   22286.60933676  .00001336  00000-0  10206-3 0  9993,2 51467  53.2169  99.5316 0001962  43.0594 317.0551 15.08833822 39652,6917.899,95.438,541.122,538.4069999999998,0.0
51467.0,STARLINK-3178,PAYLOAD,2022-10-13 20:58:58,15.08838443,0.0001923,53.2169,98.3421,44.13,315.9845,0.00013004,1.782e-05,0.0,0 STARLINK-3178,1 51467U 22010M   22286.87429346  .00001782  00000-0  13004-3 0  9990,2 51467  53.2169  98.3421 0001923  44.1300 315.9845 15.08838443 38892,6917.885,95.438,541.08,538.42,0.0
51467.0,STARLINK-3178,PAYLOAD,2022-10-14 11:17:26,15.08849221,0.0002106999999999,53.2164,95.6671,45.014,315.1023,-3.0256e-05,-7.699999999999999e-06,0.0,0 STARLINK-3178,1 51467U 22010M   22287.47045126 -.00000770  00000-0 -30256-4 0  9994,2 51467  53.2164  95.6671 0002107  45.0140 315.1023 15.08849221 38987,6917.852,95.437,541.175,538.26,0.0
51467.0,STARLINK-3178,PAYLOAD,2022-10-14 17:38:59,15.08844158,0.0001906,53.2162,94.4754,43.8048,316.3095,5.7537e-05,6.28e-06,0.0,0 STARLINK-3178,1 51467U 22010M   22287.73541089  .00000628  00000-0  57537-4 0  9993,2 51467  53.2162  94.4754 0001906  43.8048 316.3095 15.08844158 39823,6917.868,95.437,541.0509999999998,538.414,0.0
51467.0,STARLINK-3178,PAYLOAD,2022-10-15 12:43:37,15.08841439,0.0002045999999999,53.2157,90.9054,54.8443,305.2741,2.2906e-05,7.6e-07,0.0,0 STARLINK-3178,1 51467U 22010M   22288.53029120  .00000076  00000-0  22906-4 0  9998,2 51467  53.2157  90.9054 0002046  54.8443 305.2741 15.08841439 39147,6917.876,95.437,541.156,538.326,0.0
51467.0,STARLINK-3178,PAYLOAD,2022-10-15 17:29:46,15.08847815,0.0002143,53.2173,90.0174,33.004,327.1085,3.6888e-05,2.99e-06,0.0,0 STARLINK-3178,1 51467U 22010M   22288.72900634  .00000299  00000-0  36888-4 0  9998,2 51467  53.2173  90.0174 0002143  33.0040 327.1085 15.08847815 39170,6917.857,95.437,541.2040000000002,538.239,0.0
51467.0,STARLINK-3178,PAYLOAD,2022-10-16 10:59:02,15.08824461,0.0001989,53.2173,86.7456,37.1147,322.9982,-9.203e-05,-1.752e-05,0.0,0 STARLINK-3178,1 51467U 22010M   22289.45766454 -.00001752  00000-0 -92030-4 0  9997,2 51467  53.2173  86.7456 0001989  37.1147 322.9982 15.08824461 40088,6917.928000000001,95.439,541.169,538.4169999999998,0.0
51467.0,STARLINK-3178,PAYLOAD,2022-10-16 15:45:11,15.08824451,0.0002077,53.2173,85.8536,35.8569,324.2563,-8.5579e-05,-1.649e-05,0.0,0 STARLINK-3178,1 51467U 22010M   22289.65638606 -.00001649  00000-0 -85579-4 0  9991,2 51467  53.2173  85.8536 0002077  35.8569 324.2563 15.08824451 39312,6917.928000000001,95.439,541.23,538.356,0.0
51467.0,STARLINK-3178,PAYLOAD,2022-10-17 02:52:53,15.08830695,0.000217,53.2175,83.7722,43.928,316.1885,8.977e-06,-1.45e-06,0.0,0 STARLINK-3178,1 51467U 22010M   22290.12006207 -.00000145  00000-0  89770-5 0  9998,2 51467  53.2175  83.7722 0002170  43.9280 316.1885 15.08830695 40183,6917.909000000002,95.438,541.275,538.273,0.0
51467.0,STARLINK-3178,PAYLOAD,2022-10-17 10:49:48,15.0883723,0.0002094,53.2175,82.2849,35.7664,324.3468,1.3798e-05,-6.9e-07,0.0,0 STARLINK-3178,1 51467U 22010M   22290.45125858 -.00000069  00000-0  13798-4 0  9999,2 51467  53.2175  82.2849 0002094  35.7664 324.3468 15.08837230 39433,6917.889,95.438,541.202,538.305,0.0
51467.0,STARLINK-3178,PAYLOAD,2022-10-17 17:11:21,15.08840788,0.0002108,53.2176,81.0954,36.786,323.3277,4.3302e-05,4.01e-06,0.0,0 STARLINK-3178,1 51467U 22010M   22290.71621562  .00000401  00000-0  43302-4 0  9994,2 51467  53.2176  81.0954 0002108  36.7860 323.3277 15.08840788 39476,6917.878000000002,95.438,541.201,538.285,0.0
51467.0,STARLINK-3178,PAYLOAD,2022-10-18 09:05:12,15.08830533,0.0002112,53.2176,78.1223,38.6709,321.4434,0.00014379,2e-05,0.0,0 STARLINK-3178,1 51467U 22010M   22291.37861845  .00002000  00000-0  14379-3 0  9995,2 51467  53.2176  78.1223 0002112  38.6709 321.4434 15.08830533 39572,6917.909000000002,95.438,541.235,538.313,0.0
51467.0,STARLINK-3178,PAYLOAD,2022-10-18 17:02:08,15.08829927,0.000214,53.2176,76.6353,38.3742,321.7402,0.00012485,1.699e-05,0.0,0 STARLINK-3178,1 51467U 22010M   22291.70982187  .00001699  00000-0  12485-3 0  9994,2 51467  53.2176  76.6353 0002140  38.3742 321.7402 15.08829927 40423,6917.911,95.438,541.257,538.2959999999998,0.0
51467.0,STARLINK-3178,PAYLOAD,2022-10-19 12:06:46,15.088387099999998,0.0002205,53.2182,73.0674,40.0661,320.0493,8.0388e-06,-1.6e-06,0.0,0 STARLINK-3178,1 51467U 22010M   22292.50470428 -.00000160  00000-0  80388-5 0  9995,2 51467  53.2182  73.0674 0002205  40.0661 320.0493 15.08838710 39744,6917.884,95.438,541.275,538.224,0.0
51467.0,STARLINK-3178,PAYLOAD,2022-10-20 04:00:35,15.08865776,0.0001915,53.2177,70.0933,42.6156,317.4985,0.00014721,2.057e-05,0.0,0 STARLINK-3178,1 51467U 22010M   22293.16707478  .00002057  00000-0  14721-3 0  9998,2 51467  53.2177  70.0933 0001915  42.6156 317.4985 15.08865776 40646,6917.802,95.436,540.991,538.342,0.0
